OBJECT_NAME,OBJECT_ID,EPOCH,MEAN_MOTION,ECCENTRICITY,INCLINATION,RA_OF_ASC_NODE,ARG_OF_PERICENTER,MEAN_ANOMALY,EPHEMERIS_TYPE,CLASSIFICATION_TYPE,NORAD_CAT_ID,ELEMENT_SET_NO,REV_AT_EPOCH,BSTAR,MEAN_MOTION_DOT,MEAN_MOTION_DDOT
LARES-2,2022-080A,2026-05-18T17:51:04.720032,6.38965134,.00053787,70.1687,315.4270,341.5227,18.5115,0,U,53105,999,8978,0,-.11E-6,0
GREENCUBE (IO-117),2022-080E,2026-05-20T11:32:39.901632,6.42583336,.00088379,70.1431,307.8842,296.2012,63.7739,0,U,53109,999,9028,0,-.3E-7,0
STARLINK-4410,2022-084R,2026-05-20T09:39:01.124640,15.19596104,.00011495,97.5979,201.0432,93.6608,266.4758,0,U,53204,999,21077,.10990363E-2,.23383E-3,0
COSMOS 2558,2022-089A,2026-05-20T12:36:33.869664,15.69665221,.0002492,97.2258,243.5823,162.3905,197.7444,0,U,53323,999,21348,.55178E-3,.65582E-3,0
TECMS,2022-090A,2026-05-20T22:17:42.568224,15.21472273,.00011014,97.3144,209.8082,290.9586,69.1532,0,U,53346,999,21066,.11318095E-3,.2477E-4,0
DONGPO 02,2022-098J,2026-05-20T22:21:39.348288,15.69381190,.000195,97.5490,269.8818,103.2554,256.8925,0,U,53452,999,21051,.51245562E-3,.60149E-3,0
DONGPO 01,2022-098K,2026-05-20T22:52:23.517408,15.67714876,.00007473,97.5555,270.4899,160.1471,199.9818,0,U,53453,999,21048,.5064207E-3,.55498E-3,0
STARLINK-4400,2022-099D,2026-05-20T19:08:29.495904,15.05648995,.00008817,97.4641,260.9161,151.1967,208.9309,0,U,53468,999,20682,.24064654E-4,.288E-5,0
STARLINK-4621,2022-105AE,2026-05-20T22:23:53.154240,15.05648549,.00021226,97.4700,21.0579,78.5375,281.6090,0,U,53676,999,20410,.19679167E-4,.225E-5,0
SHERPA-LTC2,2022-107BG,2026-05-20T21:55:39.453312,14.69263567,.03972246,53.2341,335.7604,149.7678,212.6876,0,U,53754,999,19853,.27970266E-3,.5455E-4,0
CENTISPACE-1 S3,2022-108A,2026-05-20T21:58:43.480992,14.61223422,.0008198,53.5313,168.0259,272.7062,87.2974,0,U,53757,999,19754,.42467603E-4,.22E-6,0
CENTISPACE-1 S4,2022-108B,2026-05-20T21:54:18.114624,14.61897072,.00077985,53.5287,165.6850,258.2087,101.8013,0,U,53758,999,19757,.5023345E-4,.63E-6,0
BLUEWALKER-3,2022-111AL,2026-05-20T10:24:10.064448,15.37889358,.00074389,53.2272,164.2296,87.6619,272.5238,0,U,53807,999,20593,.92433049E-4,.3102E-4,0
YUNHAI-1 03,2022-115A,2026-05-20T22:48:58.648320,14.32697739,.00058081,98.5534,139.4448,119.5950,240.5813,0,U,53877,999,19161,.97836995E-4,.223E-5,0
CENTISPACE-1 S5,2022-126A,2026-05-20T21:22:31.153440,14.62957923,.00130484,54.9996,322.1880,19.7514,340.3983,0,U,54020,999,19304,.12308815E-3,.446E-5,0
CENTISPACE-1 S6,2022-126B,2026-05-20T22:31:48.928800,14.62246235,.00148968,54.9999,323.7353,18.8571,341.2972,0,U,54021,999,19301,.99768363E-4,.318E-5,0
OTB-3-GAZELLE,2022-127A,2026-05-20T17:36:06.210144,14.42663225,.00118206,98.3940,132.8574,271.9486,88.0350,0,U,54023,999,19040,.34958448E-4,.73E-6,0
ASO-S,2022-129A,2026-05-20T23:11:06.013248,14.52046353,.00144758,98.2752,146.4365,171.1637,188.9816,0,U,54029,999,19147,.38844446E-4,.113E-5,0
HJ-2E,2022-132A,2026-05-21T00:03:26.244576,15.21855423,.00226568,97.3805,145.8789,103.9094,256.4665,0,U,54035,999,20028,.23077741E-3,.5213E-4,0
COSMOS 2561,2022-137A,2026-05-20T11:45:22.754016,15.50931925,.001175,96.9203,200.5370,123.1954,237.0427,0,U,54109,999,20205,.17154E-3,.9873E-4,0
GONETS-M 23,2022-139A,2026-05-20T23:23:00.484224,12.42889556,.00205828,82.5090,5.2081,282.2692,77.6083,0,U,54150,999,16226,.42167502E-4,.16E-6,0
GONETS-M 24,2022-139B,2026-05-20T22:44:17.979648,12.42890164,.00159114,82.5006,4.3034,293.7468,66.1942,0,U,54151,999,16226,.83882264E-4,.21E-6,0
GONETS-M 25,2022-139C,2026-05-20T22:24:39.013632,12.42889232,.00198034,82.5072,4.9835,291.6925,68.2046,0,U,54152,999,16226,-.20868132E-4,.7E-7,0
SKIF-D,2022-139D,2026-05-21T06:37:09.494976,5.00436582,.0007377,89.9547,96.6756,210.6896,149.3035,0,U,54153,999,6276,0,.27E-6,0
MATS,2022-147A,2026-05-20T20:39:10.535904,15.05166887,.00105638,97.6833,142.5807,297.0646,62.9502,0,U,54227,999,19365,.14278449E-3,.1974E-4,0
JILIN-1 GAOFEN 03D54,2022-155D,2026-05-20T23:27:59.023872,15.84925581,.00011275,97.6113,290.7731,179.5353,180.5918,0,U,54254,999,19597,.54556377E-3,.128287E-2,0
EOS-6 (OCEANSAT-3),2022-158A,2026-05-20T23:41:22.548192,14.47022725,.00021065,98.3519,239.5445,77.4405,282.7023,0,U,54361,999,18390,.56398718E-4,.162E-5,0
DONGPO 09,2022-167D,2026-05-20T23:36:22.505184,15.35664340,.000215,97.6887,310.7935,185.1996,174.9225,0,U,54685,999,19127,.22921693E-3,.7863E-4,0
DONGPO 08,2022-167E,2026-05-20T23:34:27.975072,15.33049041,.00068378,97.6849,308.0976,260.4540,99.5928,0,U,54686,999,19115,.22045694E-3,.6958E-4,0
2022-167F,2022-167F,2026-05-20T23:24:14.234400,15.82680920,.00030304,97.6157,325.7419,162.0821,198.0555,0,U,54687,999,19251,.52493763E-3,.110856E-2,0
