LARES-2                 
1 53105U 22080A   26138.74380463 -.00000011  00000+0  00000+0 0  9992
2 53105  70.1687 315.4270 0005378 341.5227  18.5115  6.38965134 89782
GREENCUBE (IO-117)      
1 53109U 22080E   26140.48101738 -.00000003  00000+0  00000+0 0  9997
2 53109  70.1431 307.8842 0008837 296.2012  63.7739  6.42583336 90280
STARLINK-4410           
1 53204U 22084R   26140.40209635  .00023383  00000+0  10990-2 0  9991
2 53204  97.5979 201.0432 0001149  93.6608 266.4758 15.19596104210777
COSMOS 2558             
1 53323U 22089A   26140.52539201  .00065582  00000+0  55178-3 0  9991
2 53323  97.2258 243.5823 0002492 162.3905 197.7444 15.69665221213488
TECMS                   
1 53346U 22090A   26140.92896491  .00002477  00000+0  11318-3 0  9991
2 53346  97.3144 209.8082 0001101 290.9586  69.1532 15.21472273210667
DONGPO 02               
1 53452U 22098J   26140.93170542  .00060149  00000+0  51246-3 0  9994
2 53452  97.5490 269.8818 0001950 103.2554 256.8925 15.69381190210511
DONGPO 01               
1 53453U 22098K   26140.95304997  .00055498  00000+0  50642-3 0  9990
2 53453  97.5555 270.4899 0000747 160.1471 199.9818 15.67714876210487
STARLINK-4400           
1 53468U 22099D   26140.79756361  .00000288  00000+0  24065-4 0  9993
2 53468  97.4641 260.9161 0000881 151.1967 208.9309 15.05648995206822
STARLINK-4621           
1 53676U 22105AE  26140.93325410  .00000225  00000+0  19679-4 0  9991
2 53676  97.4700  21.0579 0002122  78.5375 281.6090 15.05648549204102
SHERPA-LTC2             
1 53754U 22107BG  26140.91365108  .00005455  00000+0  27970-3 0  9998
2 53754  53.2341 335.7604 0397224 149.7678 212.6876 14.69263567198538
CENTISPACE-1 S3         
1 53757U 22108A   26140.91578103  .00000022  00000+0  42468-4 0  9998
2 53757  53.5313 168.0259 0008198 272.7062  87.2974 14.61223422197542
CENTISPACE-1 S4         
1 53758U 22108B   26140.91270966  .00000063  00000+0  50233-4 0  9999
2 53758  53.5287 165.6850 0007798 258.2087 101.8013 14.61897072197572
BLUEWALKER-3            
1 53807U 22111AL  26140.43344982  .00003102  00000+0  92433-4 0  9990
2 53807  53.2272 164.2296 0007438  87.6619 272.5238 15.37889358205930
YUNHAI-1 03             
1 53877U 22115A   26140.95067880  .00000223  00000+0  97837-4 0  9991
2 53877  98.5534 139.4448 0005808 119.5950 240.5813 14.32697739191612
CENTISPACE-1 S5         
1 54020U 22126A   26140.89063835  .00000446  00000+0  12309-3 0  9990
2 54020  54.9996 322.1880 0013048  19.7514 340.3983 14.62957923193047
CENTISPACE-1 S6         
1 54021U 22126B   26140.93876075  .00000318  00000+0  99768-4 0  9997
2 54021  54.9999 323.7353 0014896  18.8571 341.2972 14.62246235193010
OTB-3-GAZELLE           
1 54023U 22127A   26140.73340521  .00000073  00000+0  34958-4 0  9998
2 54023  98.3940 132.8574 0011820 271.9486  88.0350 14.42663225190401
ASO-S                   
1 54029U 22129A   26140.96604182  .00000113  00000+0  38844-4 0  9990
2 54029  98.2752 146.4365 0014475 171.1637 188.9816 14.52046353191477
HJ-2E                   
1 54035U 22132A   26141.00238709  .00005213  00000+0  23078-3 0  9993
2 54035  97.3805 145.8789 0022656 103.9094 256.4665 15.21855423200282
COSMOS 2561             
1 54109U 22137A   26140.48984669  .00009873  00000+0  17154-3 0  9998
2 54109  96.9203 200.5370 0011750 123.1954 237.0427 15.50931925202050
GONETS-M 23             
1 54150U 22139A   26140.97431116  .00000016  00000+0  42168-4 0  9998
2 54150  82.5090   5.2081 0020582 282.2692  77.6083 12.42889556162263
GONETS-M 24             
1 54151U 22139B   26140.94743032  .00000021  00000+0  83882-4 0  9993
2 54151  82.5006   4.3034 0015911 293.7468  66.1942 12.42890164162261
GONETS-M 25             
1 54152U 22139C   26140.93378488  .00000007  00000+0 -20868-4 0  9992
2 54152  82.5072   4.9835 0019803 291.6925  68.2046 12.42889232162261
SKIF-D                  
1 54153U 22139D   26141.27580434  .00000027  00000+0  00000+0 0  9999
2 54153  89.9547  96.6756 0007377 210.6896 149.3035  5.00436582 62766
MATS                    
1 54227U 22147A   26140.86053861  .00001974  00000+0  14278-3 0  9991
2 54227  97.6833 142.5807 0010563 297.0646  62.9502 15.05166887193659
JILIN-1 GAOFEN 03D54    
1 54254U 22155D   26140.97776648  .00128287  00000+0  54556-3 0  9997
2 54254  97.6113 290.7731 0001127 179.5353 180.5918 15.84925581195973
EOS-6 (OCEANSAT-3)      
1 54361U 22158A   26140.98706653  .00000162  00000+0  56399-4 0  9998
2 54361  98.3519 239.5445 0002106  77.4405 282.7023 14.47022725183903
DONGPO 09               
1 54685U 22167D   26140.98359381  .00007863  00000+0  22922-3 0  9998
2 54685  97.6887 310.7935 0002150 185.1996 174.9225 15.35664340191277
DONGPO 08               
1 54686U 22167E   26140.98226823  .00006958  00000+0  22046-3 0  9994
2 54686  97.6849 308.0976 0006837 260.4540  99.5928 15.33049041191151
2022-167F               
1 54687U 22167F   26140.97516475  .00110856  00000+0  52494-3 0  9992
2 54687  97.6157 325.7419 0003030 162.0821 198.0555 15.82680920192516
